NORAD_CAT_ID,OBJECT_NAME,OBJECT_TYPE,EPOCH,MEAN_MOTION,ECCENTRICITY,INCLINATION,RA_OF_ASC_NODE,ARG_OF_PERICENTER,MEAN_ANOMALY,BSTAR,MEAN_MOTION_DOT,MEAN_MOTION_DDOT,TLE_LINE0,TLE_LINE1,TLE_LINE2,SEMIMAJOR_AXIS,PERIOD,APOGEE,PERIGEE,DECAYED
51895.0,STARLINK-3594,PAYLOAD,2022-12-26 23:50:17,15.08845994,0.0002773,53.2143,205.6118,39.2454,320.8738,0.00014923,2.088e-05,0.0,0 STARLINK-3594,1 51895U 22022AV  22360.99325385  .00002088  00000-0  14923-3 0  9993,2 51895  53.2143 205.6118 0002773  39.2454 320.8738 15.08845994 46810,6917.861999999999,95.437,541.645,537.809,0.0
51895.0,STARLINK-3594,PAYLOAD,2022-12-27 14:08:45,15.08847999,0.0002773,53.2143,202.9353,38.5948,321.5242,0.00025386,3.755e-05,0.0,0 STARLINK-3594,1 51895U 22022AV  22361.58941090  .00003755  00000-0  25386-3 0  9993,2 51895  53.2143 202.9353 0002773  38.5948 321.5242 15.08847999 46906,6917.856,95.437,541.639,537.803,0.0
51895.0,STARLINK-3594,PAYLOAD,2022-12-27 22:05:41,15.08839057,0.0002785,53.2145,201.4483,37.5909,322.5277,6.6304e-05,7.67e-06,0.0,0 STARLINK-3594,1 51895U 22022AV  22361.92061491  .00000767  00000-0  66304-4 0  9995,2 51895  53.2145 201.4483 0002785  37.5909 322.5277 15.08839057 46955,6917.8830000000025,95.438,541.675,537.822,0.0
51895.0,STARLINK-3594,PAYLOAD,2022-12-28 12:24:09,15.08841979,0.0002811,53.2145,198.772,38.6838,321.4355,5.4728e-05,5.83e-06,0.0,0 STARLINK-3594,1 51895U 22022AV  22362.51677221  .00000583  00000-0  54728-4 0  9998,2 51895  53.2145 198.7720 0002811  38.6838 321.4355 15.08841979 47042,6917.874,95.437,541.684,537.795,0.0
51895.0,STARLINK-3594,PAYLOAD,2022-12-28 15:34:55,15.08837112,0.0002539,53.2147,198.1751,42.0,318.1187,-8.162399999999999e-05,-1.587e-05,0.0,0 STARLINK-3594,1 51895U 22022AV  22362.64925394 -.00001587  00000-0 -81624-4 0  9991,2 51895  53.2147 198.1751 0002539  42.0000 318.1187 15.08837112 47061,6917.889,95.438,541.511,537.998,0.0
51895.0,STARLINK-3594,PAYLOAD,2022-12-29 05:53:24,15.08830699,0.0002773999999999,53.2156,195.5004,38.9079,321.2112,-4.441e-05,-9.95e-06,0.0,0 STARLINK-3594,1 51895U 22022AV  22363.24542642 -.00000995  00000-0 -44410-4 0  9993,2 51895  53.2156 195.5004 0002774  38.9079 321.2112 15.08830699 47150,6917.909000000002,95.438,541.693,537.855,0.0
51895.0,STARLINK-3594,PAYLOAD,2022-12-29 10:39:33,15.08849217,0.0002762,53.2154,194.6084,36.3194,323.7985,-0.0003248,-5.456e-05,0.0,0 STARLINK-3594,1 51895U 22022AV  22363.44414070 -.00005456  00000-0 -32480-3 0  9998,2 51895  53.2154 194.6084 0002762  36.3194 323.7985 15.08849217 47187,6917.852,95.437,541.628,537.807,0.0
51895.0,STARLINK-3594,PAYLOAD,2022-12-29 15:25:43,15.08827282,0.0002804,53.2151,193.7168,38.6979,321.4214,1.8657e-06,-2.59e-06,0.0,0 STARLINK-3594,1 51895U 22022AV  22363.64286886 -.00000259  00000-0  18657-5 0  9999,2 51895  53.2151 193.7168 0002804  38.6979 321.4214 15.08827282 47212,6917.919,95.438,541.724,537.844,0.0
51895.0,STARLINK-3594,PAYLOAD,2022-12-30 05:44:12,15.08832073,0.0002791,53.2151,191.0403,40.4955,319.6244,2.2729e-05,7.3e-07,0.0,0 STARLINK-3594,1 51895U 22022AV  22364.23902973  .00000073  00000-0  22729-4 0  9994,2 51895  53.2151 191.0403 0002791  40.4955 319.6244 15.08832073 47301,6917.905,95.438,541.7,537.839,0.0
51895.0,STARLINK-3594,PAYLOAD,2022-12-30 20:02:40,15.08830202,0.0002821,53.2152,188.3639,41.6127,318.5079,0.0001428,1.984e-05,0.0,0 STARLINK-3594,1 51895U 22022AV  22364.83519201  .00001984  00000-0  14280-3 0  9992,2 51895  53.2152 188.3639 0002821  41.6127 318.5079 15.08830202 47395,6917.91,95.438,541.727,537.8240000000002,0.0
51895.0,STARLINK-3594,PAYLOAD,2022-12-31 11:56:31,15.08838189,0.0002839999999999,53.2152,185.39,43.1027,317.0188,0.00016255,2.299e-05,0.0,0 STARLINK-3594,1 51895U 22022AV  22365.49759020  .00002299  00000-0  16255-3 0  9994,2 51895  53.2152 185.3900 0002840  43.1027 317.0188 15.08838189 47498,6917.886,95.438,541.716,537.786,0.0
51895.0,STARLINK-3594,PAYLOAD,2022-12-31 18:18:04,15.08841143,0.0002855,53.2153,184.2006,43.6089,316.5128,0.00017858,2.555e-05,0.0,0 STARLINK-3594,1 51895U 22022AV  22365.76254878  .00002555  00000-0  17858-3 0  9990,2 51895  53.2153 184.2006 0002855  43.6089 316.5128 15.08841143 47530,6917.877,95.437,541.717,537.7669999999998,0.0
51895.0,STARLINK-3594,PAYLOAD,2023-01-01 11:47:18,15.08848369,0.000291,53.2145,180.9294,44.601000000000006,315.5216,0.00021481,3.133e-05,0.0,0 STARLINK-3594,1 51895U 22022AV  23001.49118710  .00003133  00000-0  21481-3 0  9992,2 51895  53.2145 180.9294 0002910  44.6010 315.5216 15.08848369 47646,6917.855,95.437,541.7330000000002,537.707,0.0
51895.0,STARLINK-3594,PAYLOAD,2023-01-01 18:08:51,15.08844602,0.0002938,53.2142,179.7397,45.2683,314.8548,0.00014642,2.043e-05,0.0,0 STARLINK-3594,1 51895U 22022AV  23001.75614912  .00002043  00000-0  14642-3 0  9996,2 51895  53.2142 179.7397 0002938  45.2683 314.8548 15.08844602 47686,6917.866,95.437,541.764,537.6990000000002,0.0
51895.0,STARLINK-3594,PAYLOAD,2023-01-02 05:16:33,15.08843628,0.0002889,53.2149,177.6575,45.2117,314.9109,7.9693e-05,9.8e-06,0.0,0 STARLINK-3594,1 51895U 22022AV  23002.21982869  .00000980  00000-0  79693-4 0  9993,2 51895  53.2149 177.6575 0002889  45.2117 314.9109 15.08843628 47754,6917.869000000002,95.437,541.7330000000002,537.736,0.0
51895.0,STARLINK-3594,PAYLOAD,2023-01-02 11:38:05,15.08845066,0.0002924,53.2145,176.4682,45.1772,314.9458,6.8889e-05,8.08e-06,0.0,0 STARLINK-3594,1 51895U 22022AV  23002.48478720  .00000808  00000-0  68889-4 0  9992,2 51895  53.2145 176.4682 0002924  45.1772 314.9458 15.08845066 47791,6917.865,95.437,541.753,537.707,0.0
51895.0,STARLINK-3594,PAYLOAD,2023-01-02 19:35:01,15.08843182,0.0002813,53.2159,174.9813,42.7514,317.3696,0.00017942,2.568e-05,0.0,0 STARLINK-3594,1 51895U 22022AV  23002.81598396  .00002568  00000-0  17942-3 0  9999,2 51895  53.2159 174.9813 0002813  42.7514 317.3696 15.08843182 47843,6917.871,95.437,541.682,537.79,0.0
51895.0,STARLINK-3594,PAYLOAD,2023-01-03 13:04:15,15.08837041,0.0002912,53.2153,171.7113,44.9094,315.2133,7.3143e-05,8.76e-06,0.0,0 STARLINK-3594,1 51895U 22022AV  23003.54462732  .00000876  00000-0  73143-4 0  9990,2 51895  53.2153 171.7113 0002912  44.9094 315.2133 15.08837041 47954,6917.889,95.438,541.769,537.74,0.0
51895.0,STARLINK-3594,PAYLOAD,2023-01-03 17:50:25,15.08839729,0.0002904,53.2153,170.81900000000005,45.3594,314.7635,8.848100000000001e-05,1.12e-05,0.0,0 STARLINK-3594,1 51895U 22022AV  23003.74334525  .00001120  00000-0  88481-4 0  9994,2 51895  53.2153 170.8190 0002904  45.3594 314.7635 15.08839729 47989,6917.880999999999,95.438,541.755,537.737,0.0
51895.0,STARLINK-3594,PAYLOAD,2023-01-04 16:05:48,15.08845806,0.0002878999999999,53.2161,166.6556,46.8452,313.278,5.9991e-05,6.66e-06,0.0,0 STARLINK-3594,1 51895U 22022AV  23004.67070087  .00000666  00000-0  59991-4 0  9995,2 51895  53.2161 166.6556 0002879  46.8452 313.2780 15.08845806 48122,6917.863,95.437,541.719,537.736,0.0
51895.0,STARLINK-3594,PAYLOAD,2023-01-05 12:45:48,15.08849482,0.0002897,53.216,162.7899,45.9852,314.1379,0.00017734,2.536e-05,0.0,0 STARLINK-3594,1 51895U 22022AV  23005.53181294  .00002536  00000-0  17734-3 0  9990,2 51895  53.2160 162.7899 0002897  45.9852 314.1379 15.08849482 48254,6917.851,95.437,541.721,537.712,0.0
51895.0,STARLINK-3594,PAYLOAD,2023-01-05 17:31:57,15.08852876,0.0002911,53.216,161.898,45.8494,314.2737,0.00020063,2.907e-05,0.0,0 STARLINK-3594,1 51895U 22022AV  23005.73052965  .00002907  00000-0  20063-3 0  9995,2 51895  53.2160 161.8980 0002911  45.8494 314.2737 15.08852876 48286,6917.840999999999,95.437,541.72,537.692,0.0
51895.0,STARLINK-3594,PAYLOAD,2023-01-06 11:01:13,15.08829586,0.0002727,53.2149,158.6261,42.8426,317.2779,-0.00015701,-2.786e-05,0.0,0 STARLINK-3594,1 51895U 22022AV  23006.45918145 -.00002786  00000-0 -15701-3 0  9996,2 51895  53.2149 158.6261 0002727  42.8426 317.2779 15.08829586 48399,6917.911999999998,95.438,541.664,537.891,0.0
51895.0,STARLINK-3594,PAYLOAD,2023-01-06 18:58:09,15.08828359,0.0002737,53.215,157.1396,42.7167,317.4038,-0.00014999,-2.674e-05,0.0,0 STARLINK-3594,1 51895U 22022AV  23006.79038402 -.00002674  00000-0 -14999-3 0  9996,2 51895  53.2150 157.1396 0002737  42.7167 317.4038 15.08828359 48449,6917.916,95.438,541.674,537.888,0.0
51895.0,STARLINK-3594,PAYLOAD,2023-01-07 02:55:04,15.08832028,0.0002751,53.2152,155.6528,42.612,317.5086,-6.0712e-05,-1.255e-05,0.0,0 STARLINK-3594,1 51895U 22022AV  23007.12158449 -.00001255  00000-0 -60712-4 0  9997,2 51895  53.2152 155.6528 0002751  42.6120 317.5086 15.08832028 48492,6917.905,95.438,541.673,537.867,0.0
51895.0,STARLINK-3594,PAYLOAD,2023-01-07 10:52:00,15.08837841,0.0002721,53.2146,154.1658,42.4738,317.6464,0.00010459,1.376e-05,0.0,0 STARLINK-3594,1 51895U 22022AV  23007.45278283  .00001376  00000-0  10459-3 0  9996,2 51895  53.2146 154.1658 0002721  42.4738 317.6464 15.08837841 48548,6917.887,95.438,541.634,537.87,0.0
51895.0,STARLINK-3594,PAYLOAD,2023-01-08 02:45:52,15.08835316,0.0002853,53.2156,151.1931,43.2053,316.9163,0.000176,2.513e-05,0.0,0 STARLINK-3594,1 51895U 22022AV  23008.11518841  .00002513  00000-0  17600-3 0  9996,2 51895  53.2156 151.1931 0002853  43.2053 316.9163 15.08835316 48649,6917.895,95.438,541.7330000000002,537.786,0.0
51895.0,STARLINK-3594,PAYLOAD,2023-01-08 18:39:43,15.08843086,0.0002716,53.2149,148.2193,39.2948,320.8241,0.00033101,4.984e-05,0.0,0 STARLINK-3594,1 51895U 22022AV  23008.77758677  .00004984  00000-0  33101-3 0  9999,2 51895  53.2149 148.2193 0002716  39.2948 320.8241 15.08843086 48749,6917.871,95.437,541.615,537.857,0.0
51895.0,STARLINK-3594,PAYLOAD,2023-01-09 02:36:39,15.08846852,0.0002718,53.215,146.7323,39.6243,320.4947,0.00030471,4.565e-05,0.0,0 STARLINK-3594,1 51895U 22022AV  23009.10878500  .00004565  00000-0  30471-3 0  9997,2 51895  53.2150 146.7323 0002718  39.6243 320.4947 15.08846852 48791,6917.859,95.437,541.605,537.844,0.0
